CUTE-1 (CO-55)          
1 27844U 03031E   26062.59243050  .00000460  00000+0  21825-3 0  9996
2 27844  98.6778  72.4669 0010485 128.3914 231.8208 14.24260210176642
CUBESAT XI-IV (CO-57)   
1 27848U 03031J   26062.45798097  .00000377  00000+0  18495-3 0  9997
2 27848  98.6808  72.1317 0010118 145.3523 214.8316 14.23556086176330
CUBESAT XI-V            
1 28895U 05043F   26062.39543610  .00002713  00000+0  43696-3 0  9994
2 28895  98.2815 215.9011 0014379 177.1560 182.9731 14.72285021 86183
CUTE-1.7+APD II (CO-65) 
1 32785U 08021C   26062.87560311  .00009717  00000+0  63010-3 0  9999
2 32785  97.8198  42.2431 0010278  36.7740 323.4191 15.08270933969319
CANX-2                  
1 32790U 08021H   26062.72237001  .00006737  00000+0  48200-3 0  9999
2 32790  97.8557  40.5739 0012203  48.5855 311.6417 15.04717777968940
SEEDS II (CO-66)        
1 32791U 08021J   26062.50727596  .00024010  00000+0  86001-3 0  9994
2 32791  97.7506  55.6816 0002563  18.3674 341.7657 15.28751446971120
SWISSCUBE               
1 35932U 09051B   26062.66110515  .00001642  00000+0  33546-3 0  9994
2 35932  98.4105 328.6970 0006664 170.6668 189.4657 14.62239489873738
BEESAT-1                
1 35933U 09051C   26062.68531796  .00001377  00000+0  28744-3 0  9994
2 35933  98.4035 328.5738 0004889 181.8216 178.2968 14.61516240873779
ITUPSAT1                
1 35935U 09051E   26062.72139682  .00001275  00000+0  27434-3 0  9991
2 35935  98.4123 327.9111 0006873 197.5625 162.5338 14.60252771873345
TISAT 1                 
1 36799U 10035E   26062.73013168  .00030246  00000+0  11314-2 0  9994
2 36799  98.0649   0.3379 0000314 164.8855 195.2392 15.27276602851585
AEROCUBE 4.5A           
1 38767U 12048K   26062.38262368  .00092486  00000+0  10535-2 0  9994
2 38767  64.6378  41.9953 0041884 214.1084 145.7370 15.60653463356003
STRAND-1                
1 39090U 13009E   26062.43733931  .00000484  00000+0  17733-3 0  9992
2 39090  98.3881 245.2845 0008655 180.0154 180.1035 14.37088223681879
BRITE-AUSTRIA           
1 39091U 13009F   26062.47500305  .00000308  00000+0  11935-3 0  9997
2 39091  98.3949 244.5381 0009982 189.6550 170.4446 14.36491679681871
NEE-01 PEGASO           
1 39151U 13018B   26062.33352352  .00005304  00000+0  51470-3 0  9995
2 39151  98.1035 203.1334 0013569 148.9733 211.2290 14.93030021694900
POPACS 2                
1 39269U 13055E   26062.52292554  .00028066  00000+0  49115-3 0  9997
2 39269  80.9890 264.8559 0431926 172.5313 188.2631 14.87421156647488
POPACS 3                
1 39270U 13055F   26062.76175911  .00019038  00000+0  45830-3 0  9991
2 39270  81.0063 343.3222 0561427  30.7059 332.5744 14.53745697623223
